NORAD_CAT_ID,OBJECT_NAME,OBJECT_TYPE,EPOCH,MEAN_MOTION,ECCENTRICITY,INCLINATION,RA_OF_ASC_NODE,ARG_OF_PERICENTER,MEAN_ANOMALY,BSTAR,MEAN_MOTION_DOT,MEAN_MOTION_DDOT,TLE_LINE0,TLE_LINE1,TLE_LINE2,SEMIMAJOR_AXIS,PERIOD,APOGEE,PERIGEE,DECAYED
53419.0,STARLINK-4476,PAYLOAD,2024-08-19 11:16:58,15.08849268,0.0001277,53.2172,140.4641,91.4235,268.6903,0.00011002,1.464e-05,0.0,0 STARLINK-4476,1 53419U 22097AH  24232.47012726  .00001464  00000-0  11002-3 0  9996,2 53419  53.2172 140.4641 0001277  91.4235 268.6903 15.08849268112532,6917.852,95.437,540.6,538.834,0.0
53419.0,STARLINK-4476,PAYLOAD,2024-08-19 17:38:33,15.08831259,0.0001968,53.2177,139.2797,77.3189,282.8023,1.0427e-05,-1.22e-06,0.0,0 STARLINK-4476,1 53419U 22097AH  24232.73510494 -.00000122  00000-0  10427-4 0  9992,2 53419  53.2177 139.2797 0001968  77.3189 282.8023 15.08831259112579,6917.907,95.438,541.134,538.411,0.0
53419.0,STARLINK-4476,PAYLOAD,2024-08-20 03:10:51,15.08837677,0.0001428,53.2166,137.4941,80.6359,279.4795,4.7295e-05,4.65e-06,0.0,0 STARLINK-4476,1 53419U 22097AH  24233.13253994  .00000465  00000-0  47295-4 0  9998,2 53419  53.2166 137.4941 0001428  80.6359 279.4795 15.08837677112630,6917.887,95.438,540.74,538.765,0.0
53419.0,STARLINK-4476,PAYLOAD,2024-08-21 03:01:37,15.08848085,0.0001342,53.2173,133.0325,86.1434,273.9712,0.00012086,1.637e-05,0.0,0 STARLINK-4476,1 53419U 22097AH  24234.12613095  .00001637  00000-0  12086-3 0  9991,2 53419  53.2173 133.0325 0001342  86.1434 273.9712 15.08848085112785,6917.856,95.437,540.649,538.792,0.0
